STARLINK-35738          
1 67116U 25299Q   26188.43288462  .00007837  00000+0  29417-3 0  9990
2 67116  42.9976 212.3783 0001362 272.8777  87.1919 15.27560481 31433
STARLINK-35674          
1 67117U 25299R   26188.06626055  .00010864  00000+0  40401-3 0  9994
2 67117  43.0012 214.7874 0001557 265.1766  94.8908 15.27558071 31371
STARLINK-35701          
1 67118U 25299S   26188.05212559  .00011723  00000+0  43518-3 0  9991
2 67118  43.0015 214.6795 0001536 265.1143  94.9533 15.27554715 31378
STARLINK-36179          
1 67119U 25299T   26188.06240865  .00014890  00000+0  54980-3 0  9997
2 67119  43.0025 214.7586 0001468 269.7702  90.2982 15.27562945 31375
STARLINK-36217          
1 67120U 25299U   26188.15734977  .00019462  00000+0  71446-3 0  9997
2 67120  42.9989 214.6108 0001473 278.8549  81.2136 15.27599748 31382
STARLINK-36124          
1 67121U 25299V   26188.07783228  .00022545  00000+0  82635-3 0  9990
2 67121  43.0008 214.8707 0001776 263.1017  96.9633 15.27577224 31376
STARLINK-36188          
1 67122U 25299W   26188.08554038  .00015854  00000+0  58477-3 0  9999
2 67122  42.9986 214.9359 0001505 283.4117  76.6567 15.27558869 31375
STARLINK-36151          
1 67123U 25299X   26188.44701740  .00011390  00000+0  42296-3 0  9997
2 67123  43.0028 212.4858 0001775 265.9471  94.1178 15.27565223 31431
STARLINK-36195          
1 67124U 25299Y   26188.09823624  .00015346  00000+0  56626-3 0  9992
2 67124  42.9974 214.1629 0001877 283.0932  76.9710 15.27565807 31383
STARLINK-36219          
1 67125U 25299Z   26188.06754869  .00010345  00000+0  38525-3 0  9996
2 67125  43.0013 214.7925 0001428 264.9213  95.1475 15.27552419 31372
STARLINK-36223          
1 67126U 25299AA  26188.12522967  .00018294  00000+0  67273-3 0  9999
2 67126  43.0028 214.3653 0001184 256.2886 103.7834 15.27576493 31386
STARLINK-36164          
1 67127U 25299AB  26188.43802098  .00008762  00000+0  32763-3 0  9995
2 67127  42.9995 212.4121 0001541 269.8004  90.2671 15.27570107 31437
STARLINK-35685          
1 67128U 25299AC  26188.44060177 -.00004121  00000+0 -14052-3 0  9999
2 67128  43.0026 212.4375 0001226 250.7788 109.2931 15.27533457 31431
STARLINK-36214          
1 67129U 25299AD  26188.42146699  .00011111  00000+0  41288-3 0  9998
2 67129  42.9994 213.1514 0001351 263.0883  96.9815 15.27562782 31424
STARLINK-36194          
1 67130U 25299AE  26188.39062636  .00015142  00000+0  55875-3 0  9999
2 67130  43.0028 212.9200 0001534 277.1504  82.9173 15.27574548 31429
ZIYUAN 3-04 (ZY 3-04)   
1 67131U 25300A   26188.15998391  .00003471  00000+0  15848-3 0  9991
2 67131  97.4725 265.9136 0005480 239.3592 120.7104 15.21259120 30877
KUIPER-00144            
1 67133U 25301A   26188.16386182 -.00000078  00000+0  18711-4 0  9998
2 67133  51.8997 247.3045 0000582  92.5762 267.5267 14.79926342 31569
KUIPER-00164            
1 67134U 25301B   26188.19033656 -.00009581  00000+0 -13321-2 0  9996
2 67134  51.9016 259.4078 0000978 322.2567  37.8326 14.76571339 31572
KUIPER-00175            
1 67135U 25301C   26188.58335648 -.00005422  00000+0 -62830-3 0  9996
2 67135  51.8986 240.4761 0001491 101.1234  92.9996 14.83345959  5675
KUIPER-00179            
1 67136U 25301D   26188.22059898  .00000437  00000+0  86398-4 0  9993
2 67136  51.8972 257.0261 0000482  93.3656 266.7361 14.79921842 31615
KUIPER-00181            
1 67137U 25301E   26187.53171617  .00022884  00000+0  30074-2 0  9999
2 67137  51.9019 272.6059 0000720  84.6908 275.4136 14.80116760 31316
KUIPER-00183            
1 67138U 25301F   26188.15342948  .00002369  00000+0  25038-3 0  9997
2 67138  51.8935 242.8550 0009766 100.0071 260.2000 14.92815043 31798
KUIPER-00184            
1 67139U 25301G   26188.19220505 -.00003655  00000+0 -45067-3 0  9991
2 67139  51.8980 252.1549 0000418  83.1205 276.9805 14.79930523 31777
KUIPER-00186            
1 67140U 25301H   26188.24088813 -.00002024  00000+0 -23660-3 0  9997
2 67140  51.9018 269.4811 0000635  76.2876 283.8157 14.79923050 31261
KUIPER-00187            
1 67141U 25301J   26187.49535278  .00003355  00000+0  46872-3 0  9992
2 67141  51.9025 275.3007 0000565 103.5030 256.5996 14.79945364 31115
KUIPER-00188            
1 67142U 25301K   26188.17195321 -.00000493  00000+0 -35657-4 0  9992
2 67142  51.8998 239.8952 0000576 102.7894 257.3133 14.79929131 31665
KUIPER-00191            
1 67143U 25301L   26187.46968965 -.00000295  00000+0 -96450-5 0  9995
2 67143  51.8997 267.9051 0000737  99.2833 260.8213 14.79920439 31243
KUIPER-00196            
1 67144U 25301M   26188.47166197  .00001172  00000+0  19795-3 0  9993
2 67144  51.8963 219.6635 0000821 324.0719  36.0186 14.76339254 31973
KUIPER-00204            
1 67145U 25301N   26188.14085218  .00001636  00000+0  24368-3 0  9999
2 67145  51.8998 237.4198 0000225  84.4461 275.6527 14.79916058 31812
KUIPER-00210            
1 67146U 25301P   26188.24627688  .00000310  00000+0  69636-4 0  9990
2 67146  51.9006 264.4242 0000677 105.3575 254.7462 14.79921604 31509
