OBJECT_NAME,OBJECT_ID,EPOCH,MEAN_MOTION,ECCENTRICITY,INCLINATION,RA_OF_ASC_NODE,ARG_OF_PERICENTER,MEAN_ANOMALY,EPHEMERIS_TYPE,CLASSIFICATION_TYPE,NORAD_CAT_ID,ELEMENT_SET_NO,REV_AT_EPOCH,BSTAR,MEAN_MOTION_DOT,MEAN_MOTION_DDOT
STARLINK-35738,2025-299Q,2026-07-07T10:23:21.231168,15.27560481,.00013629,42.9976,212.3783,272.8777,87.1919,0,U,67116,999,3143,.29417436E-3,.7837E-4,0
STARLINK-35674,2025-299R,2026-07-07T01:35:24.911520,15.27558071,.00015575,43.0012,214.7874,265.1766,94.8908,0,U,67117,999,3137,.404008E-3,.10864E-3,0
STARLINK-35701,2025-299S,2026-07-07T01:15:03.650976,15.27554715,.00015362,43.0015,214.6795,265.1143,94.9533,0,U,67118,999,3137,.43518349E-3,.11723E-3,0
STARLINK-36179,2025-299T,2026-07-07T01:29:52.107360,15.27562945,.00014687,43.0025,214.7586,269.7702,90.2982,0,U,67119,999,3137,.54980184E-3,.1489E-3,0
STARLINK-36217,2025-299U,2026-07-07T03:46:35.020128,15.27599748,.00014731,42.9989,214.6108,278.8549,81.2136,0,U,67120,999,3138,.71446212E-3,.19462E-3,0
STARLINK-36124,2025-299V,2026-07-07T01:52:04.708992,15.27577224,.00017767,43.0008,214.8707,263.1017,96.9633,0,U,67121,999,3137,.82635375E-3,.22545E-3,0
STARLINK-36188,2025-299W,2026-07-07T02:03:10.688832,15.27558869,.00015055,42.9986,214.9359,283.4117,76.6567,0,U,67122,999,3137,.58476609E-3,.15854E-3,0
STARLINK-36151,2025-299X,2026-07-07T10:43:42.303360,15.27565223,.00017759,43.0028,212.4858,265.9471,94.1178,0,U,67123,999,3143,.4229617E-3,.1139E-3,0
STARLINK-36195,2025-299Y,2026-07-07T02:21:27.611136,15.27565807,.00018775,42.9974,214.1629,283.0932,76.9710,0,U,67124,999,3138,.56626253E-3,.15346E-3,0
STARLINK-36219,2025-299Z,2026-07-07T01:37:16.206816,15.27552419,.00014287,43.0013,214.7925,264.9213,95.1475,0,U,67125,999,3137,.38525074E-3,.10345E-3,0
STARLINK-36223,2025-299AA,2026-07-07T03:00:19.843488,15.27576493,.00011844,43.0028,214.3653,256.2886,103.7834,0,U,67126,999,3138,.67272807E-3,.18294E-3,0
STARLINK-36164,2025-299AB,2026-07-07T10:30:45.012672,15.27570107,.00015418,42.9995,212.4121,269.8004,90.2671,0,U,67127,999,3143,.32762831E-3,.8762E-4,0
STARLINK-35685,2025-299AC,2026-07-07T10:34:27.992928,15.27533457,.00012262,43.0026,212.4375,250.7788,109.2931,0,U,67128,999,3143,-.14052035E-3,-.4121E-4,0
STARLINK-36214,2025-299AD,2026-07-07T10:06:54.747936,15.27562782,.00013512,42.9994,213.1514,263.0883,96.9815,0,U,67129,999,3142,.41288074E-3,.11111E-3,0
STARLINK-36194,2025-299AE,2026-07-07T09:22:30.117504,15.27574548,.00015349,43.0028,212.9200,277.1504,82.9173,0,U,67130,999,3142,.55874559E-3,.15142E-3,0
ZIYUAN 3-04 (ZY 3-04),2025-300A,2026-07-07T03:50:22.609824,15.21259120,.00054803,97.4725,265.9136,239.3592,120.7104,0,U,67131,999,3087,.1584814E-3,.3471E-4,0
KUIPER-00144,2025-301A,2026-07-07T03:55:57.661248,14.79926342,.00005822,51.8997,247.3045,92.5762,267.5267,0,U,67133,999,3156,.18710924E-4,-.78E-6,0
KUIPER-00164,2025-301B,2026-07-07T04:34:05.078784,14.76571339,.00009781,51.9016,259.4078,322.2567,37.8326,0,U,67134,999,3157,-.13321017E-2,-.9581E-4,0
KUIPER-00175,2025-301C,2026-07-07T14:00:01.999872,14.83345959,.00014914,51.8986,240.4761,101.1234,92.9996,0,U,67135,999,567,-.62830495E-3,-.5422E-4,0
KUIPER-00179,2025-301D,2026-07-07T05:17:39.751872,14.79921842,.00004827,51.8972,257.0261,93.3656,266.7361,0,U,67136,999,3161,.86397736E-4,.437E-5,0
KUIPER-00181,2025-301E,2026-07-06T12:45:40.277088,14.80116760,.00007203,51.9019,272.6059,84.6908,275.4136,0,U,67137,999,3131,.30074041E-2,.22884E-3,0
KUIPER-00183,2025-301F,2026-07-07T03:40:56.307072,14.92815043,.00097664,51.8935,242.8550,100.0071,260.2000,0,U,67138,999,3179,.25038198E-3,.2369E-4,0
KUIPER-00184,2025-301G,2026-07-07T04:36:46.516320,14.79930523,.0000418,51.8980,252.1549,83.1205,276.9805,0,U,67139,999,3177,-.45066591E-3,-.3655E-4,0
KUIPER-00186,2025-301H,2026-07-07T05:46:52.734432,14.79923050,.00006351,51.9018,269.4811,76.2876,283.8157,0,U,67140,999,3126,-.23659746E-3,-.2024E-4,0
KUIPER-00187,2025-301J,2026-07-06T11:53:18.480192,14.79945364,.00005653,51.9025,275.3007,103.5030,256.5996,0,U,67141,999,3111,.46871975E-3,.3355E-4,0
KUIPER-00188,2025-301K,2026-07-07T04:07:36.757344,14.79929131,.00005763,51.8998,239.8952,102.7894,257.3133,0,U,67142,999,3166,-.3565707E-4,-.493E-5,0
KUIPER-00191,2025-301L,2026-07-06T11:16:21.185760,14.79920439,.00007378,51.8997,267.9051,99.2833,260.8213,0,U,67143,999,3124,-.9644967E-5,-.295E-5,0
KUIPER-00196,2025-301M,2026-07-07T11:19:11.594208,14.76339254,.00008219,51.8963,219.6635,324.0719,36.0186,0,U,67144,999,3197,.19795148E-3,.1172E-4,0
KUIPER-00204,2025-301N,2026-07-07T03:22:49.628352,14.79916058,.00002251,51.8998,237.4198,84.4461,275.6527,0,U,67145,999,3181,.24368383E-3,.1636E-4,0
KUIPER-00210,2025-301P,2026-07-07T05:54:38.322432,14.79921604,.00006771,51.9006,264.4242,105.3575,254.7462,0,U,67146,999,3150,.69635678E-4,.31E-5,0
